H-2A R/B                
1 28932U 06002B   26089.19388115  .00013779  00000+0  67864-3 0  9993
2 28932  98.2445 237.9929 0052453 170.8929 189.3266 15.16879240 97547
RESURS-DK 1             
1 29228U 06021A   26088.96685299  .00002999  00000+0  17618-3 0  9994
2 29228  69.9340 184.5706 0001308  50.0376 310.0905 15.12870937 90594
CZ-4B R/B               
1 29507U 06046C   26089.05723880  .00006922  00000+0  34785-3 0  9995
2 29507  97.5556 133.9100 0032826 194.2544 165.7767 15.17111209 63139
CZ-2C R/B               
1 31114U 07010B   26089.01556418  .00000162  00000+0  93554-4 0  9991
2 31114  98.4000 201.2778 0058118 234.3942 125.1813 14.20253604982603
COSMO-SKYMED 1          
1 31598U 07023A   26089.19015250  .00004586  00000+0  40696-3 0  9996
2 31598  97.8869 280.3897 0001071 102.8205 257.3135 14.96682992 17975
COSMOS 2428             
1 31792U 07029A   26089.20685440 -.00000016  00000+0  16956-4 0  9992
2 31792  70.9431 160.2824 0009702 255.8886 104.1157 14.12948547966994
SL-16 R/B               
1 31793U 07029B   26089.20932319 -.00000017  00000+0  16059-4 0  9998
2 31793  70.9747 129.2526 0002780 277.9697 148.7918 14.14843588968276
KORONAS-FOTON           
1 33504U 09003A   26088.21245497  .00019600  00000+0  43009-3 0  9999
2 33504  82.4275 255.5703 0011767  86.4859 273.7734 15.43844729948757
CZ-2C R/B               
1 37731U 11030B   26089.13802387  .00001823  00000+0  23550-3 0  9994
2 37731  97.8579  45.9974 0051062 284.3585  86.0812 14.81293988793125
H-2A R/B                
1 38341U 12025E   26089.13903881  .00004241  00000+0  38405-3 0  9990
2 38341  98.4764  57.8288 0042796 245.1796 114.4968 14.95313710751278
SHIJIAN-16 (SJ-16)      
1 39358U 13057A   26089.20938476  .00001858  00000+0  18377-3 0  9998
2 39358  74.9725 146.2441 0015277  59.1517 301.1172 14.92426889674562
SL-4 R/B                
1 39679U 14021B   26089.14114099  .00023819  00000+0  50981-3 0  9994
2 39679  51.6054 237.4532 0095266 177.5547 182.5922 15.39903339659427
